{"fetched_at":"2026-07-18T06:28:10.739Z","source":"https://celestrak.org/NORAD/elements/gp.php?NAME=HULIANWANG&FORMAT=JSON","constellation":"guowang","records":[{"OBJECT_NAME":"HULIANWANG DIGUI-76","OBJECT_ID":"2025-187D","EPOCH":"2026-07-17T21:51:50.408640","CLASSIFICATION_TYPE":"U","MEAN_MOTION":13.29323864,"ECCENTRICITY":0.00000777,"INCLINATION":50.0012,"RA_OF_ASC_NODE":95.804,"ARG_OF_PERICENTER":31.1947,"MEAN_ANOMALY":328.893,"EPHEMERIS_TYPE":0,"NORAD_CAT_ID":65308,"ELEMENT_SET_NO":999,"REV_AT_EPOCH":4378,"BSTAR":0.000074376836,"MEAN_MOTION_DOT":-9e-7,"MEAN_MOTION_DDOT":0},{"OBJECT_NAME":"HULIANWANG DIGUI-77","OBJECT_ID":"2025-187E","EPOCH":"2026-07-17T23:27:55.270656","CLASSIFICATION_TYPE":"U","MEAN_MOTION":13.29323829,"ECCENTRICITY":0.0000122,"INCLINATION":50.0047,"RA_OF_ASC_NODE":95.579,"ARG_OF_PERICENTER":194.0856,"MEAN_ANOMALY":166.0013,"EPHEMERIS_TYPE":0,"NORAD_CAT_ID":65309,"ELEMENT_SET_NO":999,"REV_AT_EPOCH":4379,"BSTAR":0.00007524506,"MEAN_MOTION_DOT":-8.9e-7,"MEAN_MOTION_DDOT":0},{"OBJECT_NAME":"HULIANWANG DIGUI-78","OBJECT_ID":"2025-187F","EPOCH":"2026-07-17T22:27:56.608704","CLASSIFICATION_TYPE":"U","MEAN_MOTION":13.29322793,"ECCENTRICITY":0.00000722,"INCLINATION":50.0112,"RA_OF_ASC_NODE":95.5331,"ARG_OF_PERICENTER":333.5805,"MEAN_ANOMALY":26.5063,"EPHEMERIS_TYPE":0,"NORAD_CAT_ID":65310,"ELEMENT_SET_NO":999,"REV_AT_EPOCH":4379,"BSTAR":0.00006598603,"MEAN_MOTION_DOT":-9.3e-7,"MEAN_MOTION_DDOT":0},{"OBJECT_NAME":"HULIANWANG DIGUI-79","OBJECT_ID":"2025-187G","EPOCH":"2026-07-17T22:03:46.739808","CLASSIFICATION_TYPE":"U","MEAN_MOTION":13.29319607,"ECCENTRICITY":0.00001352,"INCLINATION":50.0042,"RA_OF_ASC_NODE":95.9226,"ARG_OF_PERICENTER":326.4057,"MEAN_ANOMALY":33.6806,"EPHEMERIS_TYPE":0,"NORAD_CAT_ID":65311,"ELEMENT_SET_NO":999,"REV_AT_EPOCH":4378,"BSTAR":0.000070127856,"MEAN_MOTION_DOT":-9.2e-7,"MEAN_MOTION_DDOT":0},{"OBJECT_NAME":"HULIANWANG DIGUI-80","OBJECT_ID":"2025-187H","EPOCH":"2026-07-17T21:27:39.685248","CLASSIFICATION_TYPE":"U","MEAN_MOTION":13.29322939,"ECCENTRICITY":0.00001209,"INCLINATION":50.0032,"RA_OF_ASC_NODE":95.7689,"ARG_OF_PERICENTER":193.9887,"MEAN_ANOMALY":166.0982,"EPHEMERIS_TYPE":0,"NORAD_CAT_ID":65312,"ELEMENT_SET_NO":999,"REV_AT_EPOCH":4378,"BSTAR":0.000059306847,"MEAN_MOTION_DOT":-9.7e-7,"MEAN_MOTION_DDOT":0},{"OBJECT_NAME":"HULIANWANG DIGUI-81","OBJECT_ID":"2025-187J","EPOCH":"2026-07-17T21:03:43.407936","CLASSIFICATION_TYPE":"U","MEAN_MOTION":13.293197,"ECCENTRICITY":0.00000848,"INCLINATION":50.0071,"RA_OF_ASC_NODE":95.7861,"ARG_OF_PERICENTER":323.4587,"MEAN_ANOMALY":36.6279,"EPHEMERIS_TYPE":0,"NORAD_CAT_ID":65313,"ELEMENT_SET_NO":999,"REV_AT_EPOCH":4379,"BSTAR":0.000045666216,"MEAN_MOTION_DOT":-0.00000103,"MEAN_MOTION_DDOT":0},{"OBJECT_NAME":"HULIANWANG DIGUI-82","OBJECT_ID":"2025-220A","EPOCH":"2026-07-17T21:53:56.361696","CLASSIFICATION_TYPE":"U","MEAN_MOTION":13.2440968,"ECCENTRICITY":0.0002201,"INCLINATION":86.4952,"RA_OF_ASC_NODE":33.4806,"ARG_OF_PERICENTER":100.029,"MEAN_ANOMALY":260.1092,"EPHEMERIS_TYPE":0,"NORAD_CAT_ID":65817,"ELEMENT_SET_NO":999,"REV_AT_EPOCH":3898,"BSTAR":-0.000038999844,"MEAN_MOTION_DOT":-2e-8,"MEAN_MOTION_DDOT":0},{"OBJECT_NAME":"HULIANWANG DIGUI-83","OBJECT_ID":"2025-220B","EPOCH":"2026-07-17T21:43:09.277536","CLASSIFICATION_TYPE":"U","MEAN_MOTION":13.24409972,"ECCENTRICITY":0.00022253,"INCLINATION":86.4975,"RA_OF_ASC_NODE":33.5429,"ARG_OF_PERICENTER":99.2718,"MEAN_ANOMALY":260.8668,"EPHEMERIS_TYPE":0,"NORAD_CAT_ID":65818,"ELEMENT_SET_NO":999,"REV_AT_EPOCH":3898,"BSTAR":-0.000028667662,"MEAN_MOTION_DOT":2e-8,"MEAN_MOTION_DDOT":0},{"OBJECT_NAME":"HULIANWANG DIGUI-84","OBJECT_ID":"2025-220C","EPOCH":"2026-07-17T21:32:13.353792","CLASSIFICATION_TYPE":"U","MEAN_MOTION":13.24409751,"ECCENTRICITY":0.00021626,"INCLINATION":86.4912,"RA_OF_ASC_NODE":33.3551,"ARG_OF_PERICENTER":99.2942,"MEAN_ANOMALY":260.8437,"EPHEMERIS_TYPE":0,"NORAD_CAT_ID":65819,"ELEMENT_SET_NO":999,"REV_AT_EPOCH":3898,"BSTAR":-0.000014282301,"MEAN_MOTION_DOT":9e-8,"MEAN_MOTION_DDOT":0},{"OBJECT_NAME":"HULIANWANG DIGUI-85","OBJECT_ID":"2025-220D","EPOCH":"2026-07-17T19:32:33.166464","CLASSIFICATION_TYPE":"U","MEAN_MOTION":13.2440859,"ECCENTRICITY":0.00020641,"INCLINATION":86.4969,"RA_OF_ASC_NODE":33.5563,"ARG_OF_PERICENTER":101.63,"MEAN_ANOMALY":258.5065,"EPHEMERIS_TYPE":0,"NORAD_CAT_ID":65820,"ELEMENT_SET_NO":999,"REV_AT_EPOCH":3897,"BSTAR":-0.000002604062,"MEAN_MOTION_DOT":1.4e-7,"MEAN_MOTION_DDOT":0},{"OBJECT_NAME":"HULIANWANG DIGUI-86","OBJECT_ID":"2025-220E","EPOCH":"2026-07-17T22:59:27.057120","CLASSIFICATION_TYPE":"U","MEAN_MOTION":13.24411464,"ECCENTRICITY":0.00020517,"INCLINATION":86.4952,"RA_OF_ASC_NODE":33.4388,"ARG_OF_PERICENTER":85.0194,"MEAN_ANOMALY":275.1174,"EPHEMERIS_TYPE":0,"NORAD_CAT_ID":65821,"ELEMENT_SET_NO":999,"REV_AT_EPOCH":3899,"BSTAR":0.000024404331,"MEAN_MOTION_DOT":2.5e-7,"MEAN_MOTION_DDOT":0},{"OBJECT_NAME":"HULIANWANG DIGUI-87","OBJECT_ID":"2025-231A","EPOCH":"2026-07-17T21:55:26.443200","CLASSIFICATION_TYPE":"U","MEAN_MOTION":13.29328212,"ECCENTRICITY":0.00005002,"INCLINATION":50.0008,"RA_OF_ASC_NODE":65.6306,"ARG_OF_PERICENTER":1.68,"MEAN_ANOMALY":358.4074,"EPHEMERIS_TYPE":0,"NORAD_CAT_ID":65995,"ELEMENT_SET_NO":999,"REV_AT_EPOCH":3697,"BSTAR":0.000060322834,"MEAN_MOTION_DOT":-9.6e-7,"MEAN_MOTION_DDOT":0},{"OBJECT_NAME":"HULIANWANG DIGUI-88","OBJECT_ID":"2025-231B","EPOCH":"2026-07-17T20:19:15.340512","CLASSIFICATION_TYPE":"U","MEAN_MOTION":13.29323782,"ECCENTRICITY":0.00004899,"INCLINATION":49.9995,"RA_OF_ASC_NODE":65.9167,"ARG_OF_PERICENTER":343.9998,"MEAN_ANOMALY":16.0858,"EPHEMERIS_TYPE":0,"NORAD_CAT_ID":65996,"ELEMENT_SET_NO":999,"REV_AT_EPOCH":3696,"BSTAR":0.000051755407,"MEAN_MOTION_DOT":-0.000001,"MEAN_MOTION_DDOT":0},{"OBJECT_NAME":"HULIANWANG DIGUI-89","OBJECT_ID":"2025-231C","EPOCH":"2026-07-17T21:43:23.057472","CLASSIFICATION_TYPE":"U","MEAN_MOTION":13.29328096,"ECCENTRICITY":0.00005485,"INCLINATION":49.997,"RA_OF_ASC_NODE":65.512,"ARG_OF_PERICENTER":351.6475,"MEAN_ANOMALY":8.4388,"EPHEMERIS_TYPE":0,"NORAD_CAT_ID":65997,"ELEMENT_SET_NO":999,"REV_AT_EPOCH":3697,"BSTAR":0.000064256031,"MEAN_MOTION_DOT":-9.4e-7,"MEAN_MOTION_DDOT":0},{"OBJECT_NAME":"HULIANWANG DIGUI-90","OBJECT_ID":"2025-231D","EPOCH":"2026-07-17T21:31:27.591168","CLASSIFICATION_TYPE":"U","MEAN_MOTION":13.29326512,"ECCENTRICITY":0.00005352,"INCLINATION":50.0001,"RA_OF_ASC_NODE":65.5318,"ARG_OF_PERICENTER":347.3832,"MEAN_ANOMALY":12.7027,"EPHEMERIS_TYPE":0,"NORAD_CAT_ID":65998,"ELEMENT_SET_NO":999,"REV_AT_EPOCH":3697,"BSTAR":0.000057209585,"MEAN_MOTION_DOT":-9.7e-7,"MEAN_MOTION_DDOT":0},{"OBJECT_NAME":"HULIANWANG DIGUI-91","OBJECT_ID":"2025-231E","EPOCH":"2026-07-17T21:19:25.419360","CLASSIFICATION_TYPE":"U","MEAN_MOTION":13.2932717,"ECCENTRICITY":0.0000509,"INCLINATION":50.0019,"RA_OF_ASC_NODE":65.5312,"ARG_OF_PERICENTER":347.973,"MEAN_ANOMALY":12.113,"EPHEMERIS_TYPE":0,"NORAD_CAT_ID":65999,"ELEMENT_SET_NO":999,"REV_AT_EPOCH":3697,"BSTAR":0.000054635498,"MEAN_MOTION_DOT":-9.9e-7,"MEAN_MOTION_DDOT":0}]}
