HULIANWANG DIGUI-76     
1 65308U 25187D   26198.91100010 -.00000090  00000+0  74377-4 0  9994
2 65308  50.0012  95.8040 0000077  31.1947 328.8930 13.29323864 43783
HULIANWANG DIGUI-77     
1 65309U 25187E   26198.97772304 -.00000089  00000+0  75245-4 0  9995
2 65309  50.0047  95.5790 0000122 194.0856 166.0013 13.29323829 43796
HULIANWANG DIGUI-78     
1 65310U 25187F   26198.93607186 -.00000093  00000+0  65986-4 0  9994
2 65310  50.0112  95.5331 0000072 333.5805  26.5063 13.29322793 43794
HULIANWANG DIGUI-79     
1 65311U 25187G   26198.91929097 -.00000092  00000+0  70128-4 0  9994
2 65311  50.0042  95.9226 0000135 326.4057  33.6806 13.29319607 43787
HULIANWANG DIGUI-80     
1 65312U 25187H   26198.89420932 -.00000097  00000+0  59307-4 0  9997
2 65312  50.0032  95.7689 0000120 193.9887 166.0982 13.29322939 43788
HULIANWANG DIGUI-81     
1 65313U 25187J   26198.87758574 -.00000103  00000+0  45666-4 0  9993
2 65313  50.0071  95.7861 0000084 323.4587  36.6279 13.29319700 43794
HULIANWANG DIGUI-82     
1 65817U 25220A   26198.91245789 -.00000002  00000+0 -39000-4 0  9998
2 65817  86.4952  33.4806 0002201 100.0290 260.1092 13.24409680 38989
HULIANWANG DIGUI-83     
1 65818U 25220B   26198.90496849  .00000002  00000+0 -28668-4 0  9990
2 65818  86.4975  33.5429 0002225  99.2718 260.8668 13.24409972 38987
HULIANWANG DIGUI-84     
1 65819U 25220C   26198.89737678  .00000009  00000+0 -14282-4 0  9991
2 65819  86.4912  33.3551 0002162  99.2942 260.8437 13.24409751 38981
HULIANWANG DIGUI-85     
1 65820U 25220D   26198.81427276  .00000014  00000+0 -26041-5 0  9998
2 65820  86.4969  33.5563 0002064 101.6300 258.5065 13.24408590 38977
HULIANWANG DIGUI-86     
1 65821U 25220E   26198.95795205  .00000025  00000+0  24404-4 0  9995
2 65821  86.4952  33.4388 0002051  85.0194 275.1174 13.24411464 38998
HULIANWANG DIGUI-87     
1 65995U 25231A   26198.91350050 -.00000096  00000+0  60323-4 0  9999
2 65995  50.0008  65.6306 0000500   1.6800 358.4074 13.29328212 36974
HULIANWANG DIGUI-88     
1 65996U 25231B   26198.84670533 -.00000100  00000+0  51755-4 0  9998
2 65996  49.9995  65.9167 0000489 343.9998  16.0858 13.29323782 36964
HULIANWANG DIGUI-89     
1 65997U 25231C   26198.90512798 -.00000094  00000+0  64256-4 0  9996
2 65997  49.9970  65.5120 0000548 351.6475   8.4388 13.29328096 36972
HULIANWANG DIGUI-90     
1 65998U 25231D   26198.89684712 -.00000097  00000+0  57210-4 0  9996
2 65998  50.0001  65.5318 0000535 347.3832  12.7027 13.29326512 36974
HULIANWANG DIGUI-91     
1 65999U 25231E   26198.88848865 -.00000099  00000+0  54635-4 0  9997
2 65999  50.0019  65.5312 0000509 347.9730  12.1130 13.29327170 36972
